[{"OBJECT_NAME":"TIANMU-1 09","OBJECT_ID":"2023-101C","EPOCH":"2026-03-09T22:17:34.703232","MEAN_MOTION":15.29080822,"ECCENTRICITY":0.00049013,"INCLINATION":97.267,"RA_OF_ASC_NODE":121.1263,"ARG_OF_PERICENTER":139.4293,"MEAN_ANOMALY":220.7314,"EPHEMERIS_TYPE":0,"CLASSIFICATION_TYPE":"U","NORAD_CAT_ID":57401,"ELEMENT_SET_NO":999,"REV_AT_EPOCH":14647,"BSTAR":0.00030540035,"MEAN_MOTION_DOT":8.553e-5,"MEAN_MOTION_DDOT":0},{"OBJECT_NAME":"STARLINK-31763","OBJECT_ID":"2024-080Y","EPOCH":"2026-03-09T22:07:05.385504","MEAN_MOTION":15.27570115,"ECCENTRICITY":0.0001447,"INCLINATION":43.0024,"RA_OF_ASC_NODE":36.9795,"ARG_OF_PERICENTER":258.5515,"MEAN_ANOMALY":101.5174,"EPHEMERIS_TYPE":0,"CLASSIFICATION_TYPE":"U","NORAD_CAT_ID":59623,"ELEMENT_SET_NO":999,"REV_AT_EPOCH":10456,"BSTAR":-1.9263915e-5,"MEAN_MOTION_DOT":-7.92e-6,"MEAN_MOTION_DDOT":0}]
